NORAD_CAT_ID,OBJECT_NAME,OBJECT_TYPE,EPOCH,MEAN_MOTION,ECCENTRICITY,INCLINATION,RA_OF_ASC_NODE,ARG_OF_PERICENTER,MEAN_ANOMALY,BSTAR,MEAN_MOTION_DOT,MEAN_MOTION_DDOT,TLE_LINE0,TLE_LINE1,TLE_LINE2,SEMIMAJOR_AXIS,PERIOD,APOGEE,PERIGEE,DECAYED
51892.0,STARLINK-3587,PAYLOAD,2022-06-26 22:00:00,15.08844612,0.0001999,53.2195,307.4545,39.854,279.939,3.6304e-06,-2.3e-06,0.0,0 STARLINK-3587,1 51892U 22022AS  22177.91667824 -.00000230  00000-0  36304-5 0  9992,2 51892  53.2195 307.4545 0001999  39.8540 279.9390 15.08844612  1309,6917.866,95.437,541.114,538.3480000000002,0.0
51892.0,STARLINK-3587,PAYLOAD,2022-06-27 14:00:01,15.0883644,0.0002029,53.2197,304.462,45.9725,297.0152,-0.0016714,-0.00026788,0.0,0 STARLINK-3587,1 51892U 22022AS  22178.58334491 -.00026788  00000-0 -16714-2 0  9994,2 51892  53.2197 304.4620 0002029  45.9725 297.0152 15.08836440 19261,6917.891,95.438,541.16,538.3530000000002,0.0
51892.0,STARLINK-3587,PAYLOAD,2022-06-27 22:00:00,15.08839064,0.0002058,53.2193,302.9657,43.7484,310.8179,-0.00063649,-0.00010404,0.0,0 STARLINK-3587,1 51892U 22022AS  22178.91667824 -.00010404  00000-0 -63649-3 0  9998,2 51892  53.2193 302.9657 0002058  43.7484 310.8179 15.08839064  1304,6917.8830000000025,95.438,541.172,538.325,0.0
51892.0,STARLINK-3587,PAYLOAD,2022-06-28 06:00:00,15.08809128,0.0001891,53.2193,301.468,50.3797,315.7766,0.0031762,0.00050582,0.0,0 STARLINK-3587,1 51892U 22022AS  22179.25001157  .00050582  00000-0  31762-2 0  9996,2 51892  53.2193 301.4680 0001891  50.3797 315.7766 15.08809128 19379,6917.975,95.44,541.148,538.5319999999998,0.0
51892.0,STARLINK-3587,PAYLOAD,2022-06-28 14:00:01,15.08841663,0.000205,53.2194,299.9735,47.4539,330.2769,-0.0012385,-0.00019946,0.0,0 STARLINK-3587,1 51892U 22022AS  22179.58334491 -.00019946  00000-0 -12385-2 0  9993,2 51892  53.2194 299.9735 0002050  47.4539 330.2769 15.08841663  1300,6917.875,95.437,541.158,538.322,0.0
51892.0,STARLINK-3587,PAYLOAD,2022-06-28 22:00:00,15.08850922,0.000206,53.2189,298.4771,45.1378,344.1797,-0.0011895,-0.00019175,0.0,0 STARLINK-3587,1 51892U 22022AS  22179.91667824 -.00019175  00000-0 -11895-2 0  9998,2 51892  53.2189 298.4771 0002060  45.1378 344.1797 15.08850922 19475,6917.847,95.437,541.137,538.2869999999998,0.0
51892.0,STARLINK-3587,PAYLOAD,2022-06-29 14:00:01,15.08851927,0.0002095,53.2191,295.485,48.0786,4.4344,-0.0011208,-0.00018088,0.0,0 STARLINK-3587,1 51892U 22022AS  22180.58334491 -.00018088  00000-0 -11208-2 0  9994,2 51892  53.2191 295.4850 0002095  48.0786   4.4344 15.08851927  1309,6917.844,95.437,541.158,538.26,0.0
51892.0,STARLINK-3587,PAYLOAD,2022-06-29 22:00:00,15.08873684,0.0002062,53.2188,293.9884,45.0001,19.1104,-0.0032919,-0.00052348,0.0,0 STARLINK-3587,1 51892U 22022AS  22180.91667824 -.00052348  00000-0 -32919-2 0  9999,2 51892  53.2188 293.9884 0002062  45.0001  19.1104 15.08873684  1307,6917.776999999999,95.435,541.069,538.216,0.0
51892.0,STARLINK-3587,PAYLOAD,2022-06-30 14:00:01,15.08834487,0.0002077,53.219,290.9964,46.0918,41.2161,-0.00092219,-0.00014933,0.0,0 STARLINK-3587,1 51892U 22022AS  22181.58334491 -.00014933  00000-0 -92219-3 0  9992,2 51892  53.2190 290.9964 0002077  46.0918  41.2161 15.08834487  1307,6917.897,95.438,541.1990000000002,538.325,0.0
51892.0,STARLINK-3587,PAYLOAD,2022-06-30 22:00:00,15.08849637,0.0002061,53.2189,289.4997,44.1713,54.7168,-0.0016125,-0.00025867,0.0,0 STARLINK-3587,1 51892U 22022AS  22181.91667824 -.00025867  00000-0 -16125-2 0  9997,2 51892  53.2189 289.4997 0002061  44.1713  54.7168 15.08849637  1308,6917.851,95.437,541.1419999999998,538.29,0.0
51892.0,STARLINK-3587,PAYLOAD,2022-07-01 14:00:01,15.08845353,0.0002143,53.2191,286.5078,46.0849,75.9957,-0.00056086,-9.205e-05,0.0,0 STARLINK-3587,1 51892U 22022AS  22182.58334491 -.00009205  00000-0 -56086-3 0  9991,2 51892  53.2191 286.5078 0002143  46.0849  75.9957 15.08845353  1303,6917.864000000001,95.437,541.212,538.247,0.0
51892.0,STARLINK-3587,PAYLOAD,2022-07-01 22:00:00,15.08873449,0.0002083,53.2191,285.011,44.4421,89.2306,-0.0037722,-0.0005987999999999,0.0,0 STARLINK-3587,1 51892U 22022AS  22182.91667824 -.00059880  00000-0 -37722-2 0  9996,2 51892  53.2191 285.0110 0002083  44.4421  89.2306 15.08873449  1308,6917.778,95.435,541.0840000000002,538.202,0.0
51892.0,STARLINK-3587,PAYLOAD,2022-07-02 14:00:01,15.08828403,0.0002105,53.2193,282.0192,43.7906,113.0721,-7.021e-05,-1.405e-05,0.0,0 STARLINK-3587,1 51892U 22022AS  22183.58334491 -.00001405  00000-0 -70210-4 0  9992,2 51892  53.2193 282.0192 0002105  43.7906 113.0721 15.08828403  1309,6917.916,95.438,541.237,538.325,0.0
51892.0,STARLINK-3587,PAYLOAD,2022-07-02 22:00:00,15.08861388,0.0002047,53.2191,280.5221,43.3747,125.0801,-0.0015163,-0.00024354,0.0,0 STARLINK-3587,1 51892U 22022AS  22183.91667824 -.00024354  00000-0 -15163-2 0  9990,2 51892  53.2191 280.5221 0002047  43.3747 125.0801 15.08861388 20073,6917.815,95.436,541.096,538.264,0.0
51892.0,STARLINK-3587,PAYLOAD,2022-07-03 14:00:01,15.088677800000005,0.0002059,53.2192,277.5304,42.6659,149.0117,-0.0027699,-0.00044136,0.0,0 STARLINK-3587,1 51892U 22022AS  22184.58334491 -.00044136  00000-0 -27699-2 0  9992,2 51892  53.2192 277.5304 0002059  42.6659 149.0117 15.08867780 20178,6917.795,95.436,541.085,538.236,0.0
51892.0,STARLINK-3587,PAYLOAD,2022-07-03 22:00:00,15.08845086,0.0001872,53.2189,276.0331,39.8347,163.4491,-0.0041433,-0.00065638,0.0,0 STARLINK-3587,1 51892U 22022AS  22184.91667824 -.00065638  00000-0 -41433-2 0  9990,2 51892  53.2189 276.0331 0001872  39.8347 163.4491 15.08845086  1306,6917.865,95.437,541.025,538.435,0.0
51892.0,STARLINK-3587,PAYLOAD,2022-07-04 14:00:01,15.08806842,0.0001943,53.2189,273.0417,39.1399,187.282,0.00075921,0.00011805,0.0,0 STARLINK-3587,1 51892U 22022AS  22185.58334491  .00011805  00000-0  75921-3 0  9990,2 51892  53.2189 273.0417 0001943  39.1399 187.2820 15.08806842  1304,6917.982,95.44,541.191,538.503,0.0
51892.0,STARLINK-3587,PAYLOAD,2022-07-04 22:00:00,15.08838784,0.0001825,53.2185,271.5443,39.6963,198.2892,-0.0018112,-0.00028997,0.0,0 STARLINK-3587,1 51892U 22022AS  22185.91667824 -.00028997  00000-0 -18112-2 0  9996,2 51892  53.2185 271.5443 0001825  39.6963 198.2892 15.08838784  1304,6917.884,95.438,541.012,538.487,0.0
51892.0,STARLINK-3587,PAYLOAD,2022-07-05 14:00:01,15.08821244,0.0001948,53.2184,268.5529,39.9327,221.2197,0.0012453,0.00019576,0.0,0 STARLINK-3587,1 51892U 22022AS  22186.58334491  .00019576  00000-0  12453-2 0  9994,2 51892  53.2184 268.5529 0001948  39.9327 221.2197 15.08821244  1305,6917.938,95.439,541.15,538.455,0.0
51892.0,STARLINK-3587,PAYLOAD,2022-07-05 22:00:00,15.08848952,0.0001825,53.218,267.0553,40.8196,231.9107,-0.0018535,-0.00029673,0.0,0 STARLINK-3587,1 51892U 22022AS  22186.91667824 -.00029673  00000-0 -18535-2 0  9998,2 51892  53.2180 267.0553 0001825  40.8196 231.9107 15.08848952 20520,6917.853,95.437,540.981,538.456,0.0
51892.0,STARLINK-3587,PAYLOAD,2022-07-06 14:00:01,15.08826806,0.0001982,53.218,264.064,40.5717,255.3499,0.0015227,0.0002402,0.0,0 STARLINK-3587,1 51892U 22022AS  22187.58334491  .00024020  00000-0  15227-2 0  9997,2 51892  53.2180 264.0640 0001982  40.5717 255.3499 15.08826806 20623,6917.920999999999,95.438,541.1569999999998,538.415,0.0
51892.0,STARLINK-3587,PAYLOAD,2022-07-06 22:13:57,15.08833755,0.0001924,53.2197,262.5227,42.7428,317.3714,0.00012811,1.751e-05,0.0,0 STARLINK-3587,1 51892U 22022AS  22187.92635481  .00001751  00000-0  12811-3 0  9991,2 51892  53.2197 262.5227 0001924  42.7428 317.3714 15.08833755 20680,6917.899,95.438,541.095,538.433,0.0
51892.0,STARLINK-3587,PAYLOAD,2022-07-07 12:32:24,15.08843401,0.0001943,53.2197,259.8464,43.0667,317.0477,0.00011386,1.525e-05,0.0,0 STARLINK-3587,1 51892U 22022AS  22188.52250997  .00001525  00000-0  11386-3 0  9998,2 51892  53.2197 259.8464 0001943  43.0667 317.0477 15.08843401 20774,6917.87,95.437,541.0790000000002,538.391,0.0
51892.0,STARLINK-3587,PAYLOAD,2022-07-07 22:00:00,15.08866851,0.0001874,53.218,258.0769,39.9777,302.3572,-0.0040507,-0.00064229,0.0,0 STARLINK-3587,1 51892U 22022AS  22188.91667824 -.00064229  00000-0 -40507-2 0  9990,2 51892  53.2180 258.0769 0001874  39.9777 302.3572 15.08866851  1309,6917.7980000000025,95.436,540.96,538.367,0.0
51892.0,STARLINK-3587,PAYLOAD,2022-07-08 14:00:01,15.08846679,0.0002031,53.2182,255.0857,36.289,329.2579,0.00019575,2.829e-05,0.0,0 STARLINK-3587,1 51892U 22022AS  22189.58334491  .00002829  00000-0  19575-3 0  9993,2 51892  53.2182 255.0857 0002031  36.2890 329.2579 15.08846679  1309,6917.86,95.437,541.13,538.32,0.0
51892.0,STARLINK-3587,PAYLOAD,2022-07-08 22:00:01,15.08844527,0.000188,53.2184,253.5876,37.1331,340.0813,-0.00046722,-7.717e-05,0.0,0 STARLINK-3587,1 51892U 22022AS  22189.91668981 -.00007717  00000-0 -46722-3 0  9991,2 51892  53.2184 253.5876 0001880  37.1331 340.0813 15.08844527  1308,6917.8669999999975,95.437,541.0319999999998,538.431,0.0
51892.0,STARLINK-3587,PAYLOAD,2022-07-09 06:00:00,15.08848109,0.0001921,53.2187,252.0914,41.1973,347.5365,-0.0028875,-0.00045961,0.0,0 STARLINK-3587,1 51892U 22022AS  22190.25001157 -.00045961  00000-0 -28875-2 0  9997,2 51892  53.2187 252.0914 0001921  41.1973 347.5365 15.08848109 21037,6917.856,95.437,541.05,538.3919999999998,0.0
51892.0,STARLINK-3587,PAYLOAD,2022-07-09 14:00:01,15.08803684,0.0002118,53.2187,250.5967,37.1439,3.1744,-0.00041067,-6.812e-05,0.0,0 STARLINK-3587,1 51892U 22022AS  22190.58334491 -.00006812  00000-0 -41067-3 0  9994,2 51892  53.2187 250.5967 0002118  37.1439   3.1744 15.08803684  1302,6917.991,95.44,541.322,538.391,0.0
51892.0,STARLINK-3587,PAYLOAD,2022-07-09 20:00:01,15.08799556,0.0002033,53.2187,249.4733,37.405,281.577,-0.00065908,-0.00010751,0.0,0 STARLINK-3587,1 51892U 22022AS  22190.83334491 -.00010751  00000-0 -65908-3 0  9999,2 51892  53.2187 249.4733 0002033  37.4050 281.5770 15.08799556  1301,6918.004,95.44,541.275,538.4630000000002,0.0
